[{"OBJECT_NAME":"STARLINK-11663 [DTC]","OBJECT_ID":"2025-085E","EPOCH":"2025-05-07T22:00:01.999584","MEAN_MOTION":15.84742859,"ECCENTRICITY":0.000164,"INCLINATION":43.0069,"RA_OF_ASC_NODE":325.0446,"ARG_OF_PERICENTER":259.7078,"MEAN_ANOMALY":58.7108,"EPHEMERIS_TYPE":0,"CLASSIFICATION_TYPE":"U","NORAD_CAT_ID":63668,"ELEMENT_SET_NO":999,"REV_AT_EPOCH":212,"BSTAR":7.4572e-5,"MEAN_MOTION_DOT":0.00017348,"MEAN_MOTION_DDOT":0},{"OBJECT_NAME":"STARLINK-11595 [DTC]","OBJECT_ID":"2025-085F","EPOCH":"2025-05-08T06:00:02.000160","MEAN_MOTION":15.84779949,"ECCENTRICITY":0.000191,"INCLINATION":43.0069,"RA_OF_ASC_NODE":322.9855,"ARG_OF_PERICENTER":266.586,"MEAN_ANOMALY":158.0234,"EPHEMERIS_TYPE":0,"CLASSIFICATION_TYPE":"U","NORAD_CAT_ID":63669,"ELEMENT_SET_NO":999,"REV_AT_EPOCH":281,"BSTAR":-0.00024084,"MEAN_MOTION_DOT":-0.00058002,"MEAN_MOTION_DDOT":0},{"OBJECT_NAME":"STARLINK-11599 [DTC]","OBJECT_ID":"2025-085G","EPOCH":"2025-05-07T22:00:01.999584","MEAN_MOTION":15.84767608,"ECCENTRICITY":0.0001537,"INCLINATION":43.0069,"RA_OF_ASC_NODE":325.0332,"ARG_OF_PERICENTER":228.4788,"MEAN_ANOMALY":94.674,"EPHEMERIS_TYPE":0,"CLASSIFICATION_TYPE":"U","NORAD_CAT_ID":63670,"ELEMENT_SET_NO":999,"REV_AT_EPOCH":212,"BSTAR":-8.666e-5,"MEAN_MOTION_DOT":-0.00021301,"MEAN_MOTION_DDOT":0},{"OBJECT_NAME":"STARLINK-11603 [DTC]","OBJECT_ID":"2025-085H","EPOCH":"2025-05-07T22:00:01.999584","MEAN_MOTION":15.84788094,"ECCENTRICITY":0.0001299,"INCLINATION":43.0069,"RA_OF_ASC_NODE":325.0257,"ARG_OF_PERICENTER":259.0406,"MEAN_ANOMALY":66.9967,"EPHEMERIS_TYPE":0,"CLASSIFICATION_TYPE":"U","NORAD_CAT_ID":63671,"ELEMENT_SET_NO":999,"REV_AT_EPOCH":212,"BSTAR":-0.00019119,"MEAN_MOTION_DOT":-0.00046234,"MEAN_MOTION_DDOT":0},{"OBJECT_NAME":"STARLINK-11644 [DTC]","OBJECT_ID":"2025-085J","EPOCH":"2025-05-08T06:00:02.000160","MEAN_MOTION":15.847798,"ECCENTRICITY":0.0001433,"INCLINATION":43.0069,"RA_OF_ASC_NODE":322.9666,"ARG_OF_PERICENTER":266.1005,"MEAN_ANOMALY":166.0294,"EPHEMERIS_TYPE":0,"CLASSIFICATION_TYPE":"U","NORAD_CAT_ID":63672,"ELEMENT_SET_NO":999,"REV_AT_EPOCH":217,"BSTAR":-0.0002425,"MEAN_MOTION_DOT":-0.0005839,"MEAN_MOTION_DDOT":0},{"OBJECT_NAME":"STARLINK-11634 [DTC]","OBJECT_ID":"2025-085K","EPOCH":"2025-05-08T06:00:02.000160","MEAN_MOTION":15.84783471,"ECCENTRICITY":0.0001736,"INCLINATION":43.0061,"RA_OF_ASC_NODE":322.9582,"ARG_OF_PERICENTER":266.9993,"MEAN_ANOMALY":167.8296,"EPHEMERIS_TYPE":0,"CLASSIFICATION_TYPE":"U","NORAD_CAT_ID":63673,"ELEMENT_SET_NO":999,"REV_AT_EPOCH":216,"BSTAR":-0.00026793,"MEAN_MOTION_DOT":-0.00064425,"MEAN_MOTION_DDOT":0},{"OBJECT_NAME":"STARLINK-11656 [DTC]","OBJECT_ID":"2025-085L","EPOCH":"2025-05-08T06:00:02.000160","MEAN_MOTION":15.8479159,"ECCENTRICITY":0.0001847,"INCLINATION":43.007,"RA_OF_ASC_NODE":322.9523,"ARG_OF_PERICENTER":238.9841,"MEAN_ANOMALY":198.8905,"EPHEMERIS_TYPE":0,"CLASSIFICATION_TYPE":"U","NORAD_CAT_ID":63674,"ELEMENT_SET_NO":999,"REV_AT_EPOCH":216,"BSTAR":-0.00029769,"MEAN_MOTION_DOT":-0.00071492,"MEAN_MOTION_DDOT":0},{"OBJECT_NAME":"STARLINK-11655 [DTC]","OBJECT_ID":"2025-085M","EPOCH":"2025-05-08T06:00:02.000160","MEAN_MOTION":15.84780602,"ECCENTRICITY":0.0001685,"INCLINATION":43.0061,"RA_OF_ASC_NODE":322.9428,"ARG_OF_PERICENTER":265.1646,"MEAN_ANOMALY":175.9188,"EPHEMERIS_TYPE":0,"CLASSIFICATION_TYPE":"U","NORAD_CAT_ID":63675,"ELEMENT_SET_NO":999,"REV_AT_EPOCH":217,"BSTAR":-0.00022214,"MEAN_MOTION_DOT":-0.00053568,"MEAN_MOTION_DDOT":0},{"OBJECT_NAME":"STARLINK-11661 [DTC]","OBJECT_ID":"2025-085N","EPOCH":"2025-05-07T22:00:01.999584","MEAN_MOTION":15.84740816,"ECCENTRICITY":0.0001729,"INCLINATION":43.007,"RA_OF_ASC_NODE":324.9902,"ARG_OF_PERICENTER":240.7262,"MEAN_ANOMALY":99.4858,"EPHEMERIS_TYPE":0,"CLASSIFICATION_TYPE":"U","NORAD_CAT_ID":63676,"ELEMENT_SET_NO":999,"REV_AT_EPOCH":276,"BSTAR":0.00024617,"MEAN_MOTION_DOT":0.00058829,"MEAN_MOTION_DDOT":0},{"OBJECT_NAME":"STARLINK-33816","OBJECT_ID":"2025-085P","EPOCH":"2025-05-07T22:00:01.999584","MEAN_MOTION":15.82401848,"ECCENTRICITY":0.0001635,"INCLINATION":43.007,"RA_OF_ASC_NODE":324.9956,"ARG_OF_PERICENTER":263.3572,"MEAN_ANOMALY":74.2299,"EPHEMERIS_TYPE":0,"CLASSIFICATION_TYPE":"U","NORAD_CAT_ID":63677,"ELEMENT_SET_NO":999,"REV_AT_EPOCH":213,"BSTAR":-0.0056748,"MEAN_MOTION_DOT":-0.01094249,"MEAN_MOTION_DDOT":0},{"OBJECT_NAME":"STARLINK-33861","OBJECT_ID":"2025-085Q","EPOCH":"2025-05-07T22:00:01.999584","MEAN_MOTION":15.82429923,"ECCENTRICITY":0.0001851,"INCLINATION":43.0067,"RA_OF_ASC_NODE":324.9913,"ARG_OF_PERICENTER":273.8884,"MEAN_ANOMALY":65.3919,"EPHEMERIS_TYPE":0,"CLASSIFICATION_TYPE":"U","NORAD_CAT_ID":63678,"ELEMENT_SET_NO":999,"REV_AT_EPOCH":202,"BSTAR":-0.00566,"MEAN_MOTION_DOT":-0.01093094,"MEAN_MOTION_DDOT":0},{"OBJECT_NAME":"STARLINK-33850","OBJECT_ID":"2025-085R","EPOCH":"2025-05-07T22:00:01.999584","MEAN_MOTION":15.82446047,"ECCENTRICITY":0.0001792,"INCLINATION":43.0068,"RA_OF_ASC_NODE":324.9862,"ARG_OF_PERICENTER":273.808,"MEAN_ANOMALY":67.6018,"EPHEMERIS_TYPE":0,"CLASSIFICATION_TYPE":"U","NORAD_CAT_ID":63679,"ELEMENT_SET_NO":999,"REV_AT_EPOCH":202,"BSTAR":-0.0057282,"MEAN_MOTION_DOT":-0.01105669,"MEAN_MOTION_DDOT":0},{"OBJECT_NAME":"STARLINK-33887","OBJECT_ID":"2025-085S","EPOCH":"2025-05-07T22:00:01.999584","MEAN_MOTION":15.82460045,"ECCENTRICITY":0.0001683,"INCLINATION":43.0069,"RA_OF_ASC_NODE":324.9805,"ARG_OF_PERICENTER":264.3241,"MEAN_ANOMALY":79.3395,"EPHEMERIS_TYPE":0,"CLASSIFICATION_TYPE":"U","NORAD_CAT_ID":63680,"ELEMENT_SET_NO":999,"REV_AT_EPOCH":208,"BSTAR":-0.0058227,"MEAN_MOTION_DOT":-0.01122654,"MEAN_MOTION_DDOT":0},{"OBJECT_NAME":"STARLINK-33886","OBJECT_ID":"2025-085T","EPOCH":"2025-05-07T22:00:01.999584","MEAN_MOTION":15.82472784,"ECCENTRICITY":0.0001708,"INCLINATION":43.0069,"RA_OF_ASC_NODE":324.9751,"ARG_OF_PERICENTER":260.6706,"MEAN_ANOMALY":85.1455,"EPHEMERIS_TYPE":0,"CLASSIFICATION_TYPE":"U","NORAD_CAT_ID":63681,"ELEMENT_SET_NO":999,"REV_AT_EPOCH":202,"BSTAR":-0.00587,"MEAN_MOTION_DOT":-0.01131457,"MEAN_MOTION_DDOT":0},{"OBJECT_NAME":"STARLINK-33840","OBJECT_ID":"2025-085U","EPOCH":"2025-05-07T22:00:01.999584","MEAN_MOTION":15.82496469,"ECCENTRICITY":0.000171,"INCLINATION":43.0067,"RA_OF_ASC_NODE":324.9639,"ARG_OF_PERICENTER":273.0708,"MEAN_ANOMALY":76.9224,"EPHEMERIS_TYPE":0,"CLASSIFICATION_TYPE":"U","NORAD_CAT_ID":63682,"ELEMENT_SET_NO":999,"REV_AT_EPOCH":202,"BSTAR":-0.0059229,"MEAN_MOTION_DOT":-0.0114174,"MEAN_MOTION_DDOT":0},{"OBJECT_NAME":"STARLINK-33851","OBJECT_ID":"2025-085V","EPOCH":"2025-05-07T22:00:01.999584","MEAN_MOTION":15.8249565,"ECCENTRICITY":0.000157,"INCLINATION":43.0067,"RA_OF_ASC_NODE":324.9699,"ARG_OF_PERICENTER":263.0213,"MEAN_ANOMALY":84.7135,"EPHEMERIS_TYPE":0,"CLASSIFICATION_TYPE":"U","NORAD_CAT_ID":63683,"ELEMENT_SET_NO":999,"REV_AT_EPOCH":202,"BSTAR":-0.0058983,"MEAN_MOTION_DOT":-0.0113738,"MEAN_MOTION_DDOT":0}]
